[{"OBJECT_NAME":"PTD-4 (LISA-T)","OBJECT_ID":"2024-149DB","EPOCH":"2026-03-09T16:01:41.648160","MEAN_MOTION":15.17820166,"ECCENTRICITY":0.00028752,"INCLINATION":97.6982,"RA_OF_ASC_NODE":155.5534,"ARG_OF_PERICENTER":46.4623,"MEAN_ANOMALY":313.6849,"EPHEMERIS_TYPE":0,"CLASSIFICATION_TYPE":"U","NORAD_CAT_ID":60565,"ELEMENT_SET_NO":999,"REV_AT_EPOCH":8570,"BSTAR":0.0011421385,"MEAN_MOTION_DOT":0.0002309,"MEAN_MOTION_DDOT":0},{"OBJECT_NAME":"OBJECT D","OBJECT_ID":"2025-108D","EPOCH":"2026-03-09T23:55:58.918944","MEAN_MOTION":15.17741465,"ECCENTRICITY":0.00119931,"INCLINATION":97.4751,"RA_OF_ASC_NODE":145.8386,"ARG_OF_PERICENTER":357.4422,"MEAN_ANOMALY":2.6748,"EPHEMERIS_TYPE":0,"CLASSIFICATION_TYPE":"U","NORAD_CAT_ID":64090,"ELEMENT_SET_NO":999,"REV_AT_EPOCH":4431,"BSTAR":0.00035350679,"MEAN_MOTION_DOT":7.081e-5,"MEAN_MOTION_DDOT":0}]
